ONEWEB-0262             
1 48980U 21060P   25267.96203064  .00000088  00000+0  19688-3 0  9990
2 48980  87.8970 281.6232 0001845 101.7728 258.3610 13.16592699204729
ONEWEB-0263             
1 48981U 21060Q   25267.53772585 -.00000027  00000+0 -10455-3 0  9991
2 48981  87.8963 281.7292 0001486 101.2696 258.8602 13.16595001204635
ONEWEB-0264             
1 48982U 21060R   25267.95492453  .00000137  00000+0  32361-3 0  9991
2 48982  87.8959 281.6503 0001632  85.9379 274.1938 13.16593607204693
ONEWEB-0266             
1 48984U 21060T   25267.74829478 -.00000001  00000+0 -36570-4 0  9990
2 48984  87.8970 281.6696 0002013  95.2359 264.9001 13.16595614204651
ONEWEB-0267             
1 48985U 21060U   25267.98737426  .00000021  00000+0  20415-4 0  9999
2 48985  87.8967 281.6246 0001592  93.1305 267.0008 13.16595163204692
ONEWEB-0268             
1 48986U 21060V   25267.95569191  .00000116  00000+0  27017-3 0  9998
2 48986  87.8968 281.6367 0001799  88.7298 271.4039 13.16596192204953
ONEWEB-0269             
1 48987U 21060W   25267.55673276  .00000056  00000+0  11245-3 0  9994
2 48987  87.8960 281.7459 0001961  89.0217 271.1139 13.16594567204676
ONEWEB-0270             
1 48988U 21060X   25267.95411859  .00000114  00000+0  26569-3 0  9996
2 48988  87.8967 281.6389 0001546 102.9920 257.1384 13.16595729204767
ONEWEB-0271             
1 48989U 21060Y   25267.56146808  .00000123  00000+0  28837-3 0  9993
2 48989  87.8970 281.7014 0001581  93.9821 266.1491 13.16595405204711
ONEWEB-0272             
1 48990U 21060Z   25267.96361315  .00000099  00000+0  22418-3 0  9992
2 48990  87.8961 281.6480 0001602  87.6860 272.4455 13.16592809204711
ONEWEB-0273             
1 48991U 21060AA  25267.52981713  .00000019  00000+0  15498-4 0  9998
2 48991  87.8968 281.7237 0001760  96.3564 263.7767 13.16595208204639
ONEWEB-0274             
1 48992U 21060AB  25267.55514421  .00000026  00000+0  34616-4 0  9991
2 48992  87.8960 281.7489 0001709  79.8933 280.2391 13.16594821204671
ONEWEB-0275             
1 48993U 21060AC  25268.00003865 -.00000001  00000+0 -36295-4 0  9998
2 48993  87.8966 281.6242 0001747  89.6628 270.4703 13.16594600204668
ONEWEB-0276             
1 48994U 21060AD  25267.95727986  .00000144  00000+0  34333-3 0  9995
2 48994  87.8970 281.6303 0001838  97.2479 262.8860 13.16596324204677
ONEWEB-0277             
1 48995U 21060AE  25267.96978071  .00000068  00000+0  14320-3 0  9999
2 48995  87.8962 281.6599 0001619  88.3635 271.7682 13.16642107204669
ONEWEB-0278             
1 48996U 21060AF  25267.96044907  .00000164  00000+0  39542-3 0  9992
2 48996  87.8972 281.6264 0002060  95.3625 264.7741 13.16593000204797
ONEWEB-0279             
1 48997U 21060AG  25267.96836612  .00000113  00000+0  26125-3 0  9992
2 48997  87.8971 281.6201 0001510  90.2040 269.9264 13.16594217204723
