[{"OBJECT_NAME":"ONEWEB-0262","OBJECT_ID":"2021-060P","EPOCH":"2025-09-24T23:05:19.447296","MEAN_MOTION":13.16592699,"ECCENTRICITY":0.00018451,"INCLINATION":87.897,"RA_OF_ASC_NODE":281.6232,"ARG_OF_PERICENTER":101.7728,"MEAN_ANOMALY":258.361,"EPHEMERIS_TYPE":0,"CLASSIFICATION_TYPE":"U","NORAD_CAT_ID":48980,"ELEMENT_SET_NO":999,"REV_AT_EPOCH":20472,"BSTAR":0.00019688426,"MEAN_MOTION_DOT":8.8e-7,"MEAN_MOTION_DDOT":0},{"OBJECT_NAME":"ONEWEB-0263","OBJECT_ID":"2021-060Q","EPOCH":"2025-09-24T12:54:19.513440","MEAN_MOTION":13.16595001,"ECCENTRICITY":0.00014863,"INCLINATION":87.8963,"RA_OF_ASC_NODE":281.7292,"ARG_OF_PERICENTER":101.2696,"MEAN_ANOMALY":258.8602,"EPHEMERIS_TYPE":0,"CLASSIFICATION_TYPE":"U","NORAD_CAT_ID":48981,"ELEMENT_SET_NO":999,"REV_AT_EPOCH":20463,"BSTAR":-0.00010455273,"MEAN_MOTION_DOT":-2.7e-7,"MEAN_MOTION_DDOT":0},{"OBJECT_NAME":"ONEWEB-0264","OBJECT_ID":"2021-060R","EPOCH":"2025-09-24T22:55:05.479392","MEAN_MOTION":13.16593607,"ECCENTRICITY":0.00016326,"INCLINATION":87.8959,"RA_OF_ASC_NODE":281.6503,"ARG_OF_PERICENTER":85.9379,"MEAN_ANOMALY":274.1938,"EPHEMERIS_TYPE":0,"CLASSIFICATION_TYPE":"U","NORAD_CAT_ID":48982,"ELEMENT_SET_NO":999,"REV_AT_EPOCH":20469,"BSTAR":0.00032360502,"MEAN_MOTION_DOT":1.37e-6,"MEAN_MOTION_DDOT":0},{"OBJECT_NAME":"ONEWEB-0266","OBJECT_ID":"2021-060T","EPOCH":"2025-09-24T17:57:32.668992","MEAN_MOTION":13.16595614,"ECCENTRICITY":0.00020137,"INCLINATION":87.897,"RA_OF_ASC_NODE":281.6696,"ARG_OF_PERICENTER":95.2359,"MEAN_ANOMALY":264.9001,"EPHEMERIS_TYPE":0,"CLASSIFICATION_TYPE":"U","NORAD_CAT_ID":48984,"ELEMENT_SET_NO":999,"REV_AT_EPOCH":20465,"BSTAR":-3.6570251e-5,"MEAN_MOTION_DOT":-1.0e-8,"MEAN_MOTION_DDOT":0},{"OBJECT_NAME":"ONEWEB-0267","OBJECT_ID":"2021-060U","EPOCH":"2025-09-24T23:41:49.136064","MEAN_MOTION":13.16595163,"ECCENTRICITY":0.00015924,"INCLINATION":87.8967,"RA_OF_ASC_NODE":281.6246,"ARG_OF_PERICENTER":93.1305,"MEAN_ANOMALY":267.0008,"EPHEMERIS_TYPE":0,"CLASSIFICATION_TYPE":"U","NORAD_CAT_ID":48985,"ELEMENT_SET_NO":999,"REV_AT_EPOCH":20469,"BSTAR":2.0414931e-5,"MEAN_MOTION_DOT":2.1e-7,"MEAN_MOTION_DDOT":0},{"OBJECT_NAME":"ONEWEB-0268","OBJECT_ID":"2021-060V","EPOCH":"2025-09-24T22:56:11.781024","MEAN_MOTION":13.16596192,"ECCENTRICITY":0.00017997,"INCLINATION":87.8968,"RA_OF_ASC_NODE":281.6367,"ARG_OF_PERICENTER":88.7298,"MEAN_ANOMALY":271.4039,"EPHEMERIS_TYPE":0,"CLASSIFICATION_TYPE":"U","NORAD_CAT_ID":48986,"ELEMENT_SET_NO":999,"REV_AT_EPOCH":20495,"BSTAR":0.00027016603,"MEAN_MOTION_DOT":1.16e-6,"MEAN_MOTION_DDOT":0},{"OBJECT_NAME":"ONEWEB-0269","OBJECT_ID":"2021-060W","EPOCH":"2025-09-24T13:21:41.710464","MEAN_MOTION":13.16594567,"ECCENTRICITY":0.00019618,"INCLINATION":87.896,"RA_OF_ASC_NODE":281.7459,"ARG_OF_PERICENTER":89.0217,"MEAN_ANOMALY":271.1139,"EPHEMERIS_TYPE":0,"CLASSIFICATION_TYPE":"U","NORAD_CAT_ID":48987,"ELEMENT_SET_NO":999,"REV_AT_EPOCH":20467,"BSTAR":0.00011245255,"MEAN_MOTION_DOT":5.6e-7,"MEAN_MOTION_DDOT":0},{"OBJECT_NAME":"ONEWEB-0270","OBJECT_ID":"2021-060X","EPOCH":"2025-09-24T22:53:55.846176","MEAN_MOTION":13.16595729,"ECCENTRICITY":0.00015465,"INCLINATION":87.8967,"RA_OF_ASC_NODE":281.6389,"ARG_OF_PERICENTER":102.992,"MEAN_ANOMALY":257.1384,"EPHEMERIS_TYPE":0,"CLASSIFICATION_TYPE":"U","NORAD_CAT_ID":48988,"ELEMENT_SET_NO":999,"REV_AT_EPOCH":20476,"BSTAR":0.00026569231,"MEAN_MOTION_DOT":1.14e-6,"MEAN_MOTION_DDOT":0},{"OBJECT_NAME":"ONEWEB-0271","OBJECT_ID":"2021-060Y","EPOCH":"2025-09-24T13:28:30.842112","MEAN_MOTION":13.16595405,"ECCENTRICITY":0.00015811,"INCLINATION":87.897,"RA_OF_ASC_NODE":281.7014,"ARG_OF_PERICENTER":93.9821,"MEAN_ANOMALY":266.1491,"EPHEMERIS_TYPE":0,"CLASSIFICATION_TYPE":"U","NORAD_CAT_ID":48989,"ELEMENT_SET_NO":999,"REV_AT_EPOCH":20471,"BSTAR":0.00028837096,"MEAN_MOTION_DOT":1.23e-6,"MEAN_MOTION_DDOT":0},{"OBJECT_NAME":"ONEWEB-0272","OBJECT_ID":"2021-060Z","EPOCH":"2025-09-24T23:07:36.176160","MEAN_MOTION":13.16592809,"ECCENTRICITY":0.00016025,"INCLINATION":87.8961,"RA_OF_ASC_NODE":281.648,"ARG_OF_PERICENTER":87.686,"MEAN_ANOMALY":272.4455,"EPHEMERIS_TYPE":0,"CLASSIFICATION_TYPE":"U","NORAD_CAT_ID":48990,"ELEMENT_SET_NO":999,"REV_AT_EPOCH":20471,"BSTAR":0.00022418213,"MEAN_MOTION_DOT":9.9e-7,"MEAN_MOTION_DDOT":0},{"OBJECT_NAME":"ONEWEB-0273","OBJECT_ID":"2021-060AA","EPOCH":"2025-09-24T12:42:56.200032","MEAN_MOTION":13.16595208,"ECCENTRICITY":0.000176,"INCLINATION":87.8968,"RA_OF_ASC_NODE":281.7237,"ARG_OF_PERICENTER":96.3564,"MEAN_ANOMALY":263.7767,"EPHEMERIS_TYPE":0,"CLASSIFICATION_TYPE":"U","NORAD_CAT_ID":48991,"ELEMENT_SET_NO":999,"REV_AT_EPOCH":20463,"BSTAR":1.5498022e-5,"MEAN_MOTION_DOT":1.9e-7,"MEAN_MOTION_DDOT":0},{"OBJECT_NAME":"ONEWEB-0274","OBJECT_ID":"2021-060AB","EPOCH":"2025-09-24T13:19:24.459744","MEAN_MOTION":13.16594821,"ECCENTRICITY":0.00017093,"INCLINATION":87.896,"RA_OF_ASC_NODE":281.7489,"ARG_OF_PERICENTER":79.8933,"MEAN_ANOMALY":280.2391,"EPHEMERIS_TYPE":0,"CLASSIFICATION_TYPE":"U","NORAD_CAT_ID":48992,"ELEMENT_SET_NO":999,"REV_AT_EPOCH":20467,"BSTAR":3.4616217e-5,"MEAN_MOTION_DOT":2.6e-7,"MEAN_MOTION_DDOT":0},{"OBJECT_NAME":"ONEWEB-0275","OBJECT_ID":"2021-060AC","EPOCH":"2025-09-25T00:00:03.339360","MEAN_MOTION":13.165946,"ECCENTRICITY":0.00017472,"INCLINATION":87.8966,"RA_OF_ASC_NODE":281.6242,"ARG_OF_PERICENTER":89.6628,"MEAN_ANOMALY":270.4703,"EPHEMERIS_TYPE":0,"CLASSIFICATION_TYPE":"U","NORAD_CAT_ID":48993,"ELEMENT_SET_NO":999,"REV_AT_EPOCH":20466,"BSTAR":-3.6295406e-5,"MEAN_MOTION_DOT":-1.0e-8,"MEAN_MOTION_DDOT":0},{"OBJECT_NAME":"ONEWEB-0276","OBJECT_ID":"2021-060AD","EPOCH":"2025-09-24T22:58:28.979904","MEAN_MOTION":13.16596324,"ECCENTRICITY":0.00018384,"INCLINATION":87.897,"RA_OF_ASC_NODE":281.6303,"ARG_OF_PERICENTER":97.2479,"MEAN_ANOMALY":262.886,"EPHEMERIS_TYPE":0,"CLASSIFICATION_TYPE":"U","NORAD_CAT_ID":48994,"ELEMENT_SET_NO":999,"REV_AT_EPOCH":20467,"BSTAR":0.00034332735,"MEAN_MOTION_DOT":1.44e-6,"MEAN_MOTION_DDOT":0},{"OBJECT_NAME":"ONEWEB-0277","OBJECT_ID":"2021-060AE","EPOCH":"2025-09-24T23:16:29.053344","MEAN_MOTION":13.16642107,"ECCENTRICITY":0.00016193,"INCLINATION":87.8962,"RA_OF_ASC_NODE":281.6599,"ARG_OF_PERICENTER":88.3635,"MEAN_ANOMALY":271.7682,"EPHEMERIS_TYPE":0,"CLASSIFICATION_TYPE":"U","NORAD_CAT_ID":48995,"ELEMENT_SET_NO":999,"REV_AT_EPOCH":20466,"BSTAR":0.00014319768,"MEAN_MOTION_DOT":6.8e-7,"MEAN_MOTION_DDOT":0},{"OBJECT_NAME":"ONEWEB-0278","OBJECT_ID":"2021-060AF","EPOCH":"2025-09-24T23:03:02.799648","MEAN_MOTION":13.16593,"ECCENTRICITY":0.00020606,"INCLINATION":87.8972,"RA_OF_ASC_NODE":281.6264,"ARG_OF_PERICENTER":95.3625,"MEAN_ANOMALY":264.7741,"EPHEMERIS_TYPE":0,"CLASSIFICATION_TYPE":"U","NORAD_CAT_ID":48996,"ELEMENT_SET_NO":999,"REV_AT_EPOCH":20479,"BSTAR":0.00039541793,"MEAN_MOTION_DOT":1.64e-6,"MEAN_MOTION_DDOT":0},{"OBJECT_NAME":"ONEWEB-0279","OBJECT_ID":"2021-060AG","EPOCH":"2025-09-24T23:14:26.832768","MEAN_MOTION":13.16594217,"ECCENTRICITY":0.00015105,"INCLINATION":87.8971,"RA_OF_ASC_NODE":281.6201,"ARG_OF_PERICENTER":90.204,"MEAN_ANOMALY":269.9264,"EPHEMERIS_TYPE":0,"CLASSIFICATION_TYPE":"U","NORAD_CAT_ID":48997,"ELEMENT_SET_NO":999,"REV_AT_EPOCH":20472,"BSTAR":0.00026125371,"MEAN_MOTION_DOT":1.13e-6,"MEAN_MOTION_DDOT":0}]
